XMM                     
1 25989U 99066A   04140.20833333  .00000000  00000-0  00000-0 0  7939
2 25989  44.4881 134.5780 7228850 130.4839 357.2173  0.50128614  1165
